TIANMU-1 07             
1 57399U 23101A   26065.57454230  .00008352  00000+0  29795-3 0  9991
2 57399  97.2728 118.5929 0004609 142.4105 217.7458 15.29118809145964
STARLINK-34025          
1 63824U 25092W   26068.32904435  .00031444  00000+0  11471-2 0  9994
2 63824  42.9976 174.2202 0001362 270.1962  89.8733 15.27584421 48503
